[{"OBJECT_NAME":"GLOBALSTAR M045","OBJECT_ID":"1999-019A","EPOCH":"2026-03-07T14:31:09.072768","MEAN_MOTION":12.27074224,"ECCENTRICITY":0.00010394,"INCLINATION":51.9959,"RA_OF_ASC_NODE":274.4665,"ARG_OF_PERICENTER":73.8118,"MEAN_ANOMALY":301.5117,"EPHEMERIS_TYPE":0,"CLASSIFICATION_TYPE":"U","NORAD_CAT_ID":25676,"ELEMENT_SET_NO":999,"REV_AT_EPOCH":22573,"BSTAR":0.00033184842,"MEAN_MOTION_DOT":-5.6e-7,"MEAN_MOTION_DDOT":0},{"OBJECT_NAME":"GLOBALSTAR M019","OBJECT_ID":"1999-019B","EPOCH":"2026-03-07T10:47:01.649760","MEAN_MOTION":12.13886584,"ECCENTRICITY":0.00016111,"INCLINATION":51.9884,"RA_OF_ASC_NODE":63.8,"ARG_OF_PERICENTER":127.9554,"MEAN_ANOMALY":6.0915,"EPHEMERIS_TYPE":0,"CLASSIFICATION_TYPE":"U","NORAD_CAT_ID":25677,"ELEMENT_SET_NO":999,"REV_AT_EPOCH":21711,"BSTAR":-0.00085187779,"MEAN_MOTION_DOT":-1.72e-6,"MEAN_MOTION_DDOT":0},{"OBJECT_NAME":"GLOBALSTAR M044","OBJECT_ID":"1999-019C","EPOCH":"2026-03-07T09:23:18.840192","MEAN_MOTION":11.90262649,"ECCENTRICITY":0.00061101,"INCLINATION":51.9982,"RA_OF_ASC_NODE":48.2461,"ARG_OF_PERICENTER":185.0103,"MEAN_ANOMALY":342.5314,"EPHEMERIS_TYPE":0,"CLASSIFICATION_TYPE":"U","NORAD_CAT_ID":25678,"ELEMENT_SET_NO":999,"REV_AT_EPOCH":20266,"BSTAR":2.6559171e-5,"MEAN_MOTION_DOT":-8.2e-7,"MEAN_MOTION_DDOT":0},{"OBJECT_NAME":"GLOBALSTAR M042","OBJECT_ID":"1999-019D","EPOCH":"2026-03-07T14:41:33.853632","MEAN_MOTION":12.22094512,"ECCENTRICITY":0.00030808,"INCLINATION":52.004,"RA_OF_ASC_NODE":27.2871,"ARG_OF_PERICENTER":116.4279,"MEAN_ANOMALY":55.0264,"EPHEMERIS_TYPE":0,"CLASSIFICATION_TYPE":"U","NORAD_CAT_ID":25679,"ELEMENT_SET_NO":999,"REV_AT_EPOCH":21746,"BSTAR":-5.4372615e-5,"MEAN_MOTION_DOT":-9.8e-7,"MEAN_MOTION_DDOT":0},{"OBJECT_NAME":"GLOBALSTAR M025","OBJECT_ID":"1999-031A","EPOCH":"2026-03-07T06:46:53.849280","MEAN_MOTION":11.22560714,"ECCENTRICITY":0.000171,"INCLINATION":51.9799,"RA_OF_ASC_NODE":269.7927,"ARG_OF_PERICENTER":190.9119,"MEAN_ANOMALY":340.4587,"EPHEMERIS_TYPE":0,"CLASSIFICATION_TYPE":"U","NORAD_CAT_ID":25770,"ELEMENT_SET_NO":999,"REV_AT_EPOCH":51125,"BSTAR":-9.3677e-5,"MEAN_MOTION_DOT":-7.1e-7,"MEAN_MOTION_DDOT":0},{"OBJECT_NAME":"GLOBALSTAR M049","OBJECT_ID":"1999-031B","EPOCH":"2026-03-07T14:40:23.868768","MEAN_MOTION":11.12121769,"ECCENTRICITY":0.00033743,"INCLINATION":51.9902,"RA_OF_ASC_NODE":317.0309,"ARG_OF_PERICENTER":97.0676,"MEAN_ANOMALY":263.0504,"EPHEMERIS_TYPE":0,"CLASSIFICATION_TYPE":"U","NORAD_CAT_ID":25771,"ELEMENT_SET_NO":999,"REV_AT_EPOCH":14673,"BSTAR":-0.00058728296,"MEAN_MOTION_DOT":-8.2e-7,"MEAN_MOTION_DDOT":0},{"OBJECT_NAME":"GLOBALSTAR M047","OBJECT_ID":"1999-031C","EPOCH":"2026-03-07T13:41:26.736576","MEAN_MOTION":11.3193257,"ECCENTRICITY":0.00164448,"INCLINATION":51.9827,"RA_OF_ASC_NODE":288.9307,"ARG_OF_PERICENTER":358.6015,"MEAN_ANOMALY":1.4742,"EPHEMERIS_TYPE":0,"CLASSIFICATION_TYPE":"U","NORAD_CAT_ID":25772,"ELEMENT_SET_NO":999,"REV_AT_EPOCH":50093,"BSTAR":0.00014644678,"MEAN_MOTION_DOT":-6.4e-7,"MEAN_MOTION_DDOT":0},{"OBJECT_NAME":"GLOBALSTAR M052","OBJECT_ID":"1999-031D","EPOCH":"2026-03-07T10:48:28.708992","MEAN_MOTION":11.15063962,"ECCENTRICITY":0.00025094,"INCLINATION":51.987,"RA_OF_ASC_NODE":62.3626,"ARG_OF_PERICENTER":245.3867,"MEAN_ANOMALY":285.6406,"EPHEMERIS_TYPE":0,"CLASSIFICATION_TYPE":"U","NORAD_CAT_ID":25773,"ELEMENT_SET_NO":999,"REV_AT_EPOCH":50787,"BSTAR":5.2793986e-5,"MEAN_MOTION_DOT":-6.4e-7,"MEAN_MOTION_DDOT":0},{"OBJECT_NAME":"GLOBALSTAR M035","OBJECT_ID":"1999-037A","EPOCH":"2026-03-07T15:57:41.804352","MEAN_MOTION":11.04541384,"ECCENTRICITY":0.00138969,"INCLINATION":51.9934,"RA_OF_ASC_NODE":187.3796,"ARG_OF_PERICENTER":52.9836,"MEAN_ANOMALY":52.7701,"EPHEMERIS_TYPE":0,"CLASSIFICATION_TYPE":"U","NORAD_CAT_ID":25851,"ELEMENT_SET_NO":999,"REV_AT_EPOCH":12537,"BSTAR":-0.0012045234,"MEAN_MOTION_DOT":-9.6e-7,"MEAN_MOTION_DDOT":0},{"OBJECT_NAME":"GLOBALSTAR M032","OBJECT_ID":"1999-037B","EPOCH":"2026-03-07T11:28:24.747744","MEAN_MOTION":11.19068604,"ECCENTRICITY":0.0012309,"INCLINATION":52.0001,"RA_OF_ASC_NODE":354.8324,"ARG_OF_PERICENTER":250.8796,"MEAN_ANOMALY":109.0671,"EPHEMERIS_TYPE":0,"CLASSIFICATION_TYPE":"U","NORAD_CAT_ID":25852,"ELEMENT_SET_NO":999,"REV_AT_EPOCH":16426,"BSTAR":0.0015080481,"MEAN_MOTION_DOT":-2.0e-7,"MEAN_MOTION_DDOT":0},{"OBJECT_NAME":"GLOBALSTAR M051","OBJECT_ID":"1999-037C","EPOCH":"2026-03-07T13:19:56.854560","MEAN_MOTION":11.42200473,"ECCENTRICITY":6.385e-5,"INCLINATION":51.9784,"RA_OF_ASC_NODE":125.5483,"ARG_OF_PERICENTER":136.8087,"MEAN_ANOMALY":223.2774,"EPHEMERIS_TYPE":0,"CLASSIFICATION_TYPE":"U","NORAD_CAT_ID":25853,"ELEMENT_SET_NO":999,"REV_AT_EPOCH":16248,"BSTAR":0.00060835928,"MEAN_MOTION_DOT":-4.7e-7,"MEAN_MOTION_DDOT":0},{"OBJECT_NAME":"GLOBALSTAR M030","OBJECT_ID":"1999-037D","EPOCH":"2026-03-07T13:56:47.032224","MEAN_MOTION":11.5510394,"ECCENTRICITY":0.00041485,"INCLINATION":51.9865,"RA_OF_ASC_NODE":274.8422,"ARG_OF_PERICENTER":137.3539,"MEAN_ANOMALY":222.7601,"EPHEMERIS_TYPE":0,"CLASSIFICATION_TYPE":"U","NORAD_CAT_ID":25854,"ELEMENT_SET_NO":999,"REV_AT_EPOCH":18048,"BSTAR":-0.00014486314,"MEAN_MOTION_DOT":-8.2e-7,"MEAN_MOTION_DDOT":0},{"OBJECT_NAME":"GLOBALSTAR M048","OBJECT_ID":"1999-041A","EPOCH":"2026-03-07T06:03:45.994752","MEAN_MOTION":11.33862691,"ECCENTRICITY":0.0013211,"INCLINATION":51.9369,"RA_OF_ASC_NODE":71.4783,"ARG_OF_PERICENTER":279.8523,"MEAN_ANOMALY":92.8098,"EPHEMERIS_TYPE":0,"CLASSIFICATION_TYPE":"U","NORAD_CAT_ID":25872,"ELEMENT_SET_NO":999,"REV_AT_EPOCH":15482,"BSTAR":-0.00012743,"MEAN_MOTION_DOT":-7.5e-7,"MEAN_MOTION_DDOT":0},{"OBJECT_NAME":"GLOBALSTAR M026","OBJECT_ID":"1999-041B","EPOCH":"2026-03-07T01:39:17.474400","MEAN_MOTION":11.06842666,"ECCENTRICITY":0.00021159,"INCLINATION":52.0021,"RA_OF_ASC_NODE":303.9002,"ARG_OF_PERICENTER":5.294,"MEAN_ANOMALY":166.0578,"EPHEMERIS_TYPE":0,"CLASSIFICATION_TYPE":"U","NORAD_CAT_ID":25873,"ELEMENT_SET_NO":999,"REV_AT_EPOCH":17759,"BSTAR":0.0028724882,"MEAN_MOTION_DOT":1.4e-7,"MEAN_MOTION_DDOT":0},{"OBJECT_NAME":"GLOBALSTAR M043","OBJECT_ID":"1999-041C","EPOCH":"2026-03-07T15:32:40.243200","MEAN_MOTION":11.25697847,"ECCENTRICITY":0.0013513,"INCLINATION":51.9387,"RA_OF_ASC_NODE":188.6816,"ARG_OF_PERICENTER":44.538,"MEAN_ANOMALY":57.2901,"EPHEMERIS_TYPE":0,"CLASSIFICATION_TYPE":"U","NORAD_CAT_ID":25874,"ELEMENT_SET_NO":999,"REV_AT_EPOCH":15254,"BSTAR":0.00051446385,"MEAN_MOTION_DOT":-5.1e-7,"MEAN_MOTION_DDOT":0},{"OBJECT_NAME":"GLOBALSTAR M028","OBJECT_ID":"1999-041D","EPOCH":"2026-03-07T08:12:03.492576","MEAN_MOTION":12.50597085,"ECCENTRICITY":0.00629603,"INCLINATION":51.9621,"RA_OF_ASC_NODE":128.3748,"ARG_OF_PERICENTER":282.8107,"MEAN_ANOMALY":76.5724,"EPHEMERIS_TYPE":0,"CLASSIFICATION_TYPE":"U","NORAD_CAT_ID":25875,"ELEMENT_SET_NO":999,"REV_AT_EPOCH":22310,"BSTAR":0.00028822814,"MEAN_MOTION_DOT":-5.5e-7,"MEAN_MOTION_DDOT":0}]
