GLOBALSTAR M045         
1 25676U 99019A   26066.60496612 -.00000056  00000+0  33185-3 0  9992
2 25676  51.9959 274.4665 0001039  73.8118 301.5117 12.27074224225739
GLOBALSTAR M019         
1 25677U 99019B   26066.44932465 -.00000172  00000+0 -85188-3 0  9996
2 25677  51.9884  63.8000 0001611 127.9554   6.0915 12.13886584217112
GLOBALSTAR M044         
1 25678U 99019C   26066.39119028 -.00000082  00000+0  26559-4 0  9990
2 25678  51.9982  48.2461 0006110 185.0103 342.5314 11.90262649202663
GLOBALSTAR M042         
1 25679U 99019D   26066.61219738 -.00000098  00000+0 -54373-4 0  9998
2 25679  52.0040  27.2871 0003080 116.4279  55.0264 12.22094512217460
GLOBALSTAR M025         
1 25770U 99031A   26066.28256770 -.00000071  00000+0 -93677-4 0  9995
2 25770  51.9799 269.7927 0001710 190.9119 340.4587 11.22560714511258
GLOBALSTAR M049         
1 25771U 99031B   26066.61138737 -.00000082  00000+0 -58728-3 0  9994
2 25771  51.9902 317.0309 0003374  97.0676 263.0504 11.12121769146737
GLOBALSTAR M047         
1 25772U 99031C   26066.57044834 -.00000064  00000+0  14645-3 0  9993
2 25772  51.9827 288.9307 0016444 358.6015   1.4742 11.31932570500938
GLOBALSTAR M052         
1 25773U 99031D   26066.45033228 -.00000064  00000+0  52794-4 0  9994
2 25773  51.9870  62.3626 0002509 245.3867 285.6406 11.15063962507874
GLOBALSTAR M035         
1 25851U 99037A   26066.66506718 -.00000096  00000+0 -12045-2 0  9998
2 25851  51.9934 187.3796 0013896  52.9836  52.7701 11.04541384125376
GLOBALSTAR M032         
1 25852U 99037B   26066.47806421 -.00000020  00000+0  15080-2 0  9990
2 25852  52.0001 354.8324 0012309 250.8796 109.0671 11.19068604164262
GLOBALSTAR M051         
1 25853U 99037C   26066.55551915 -.00000047  00000+0  60836-3 0  9994
2 25853  51.9784 125.5483 0000638 136.8087 223.2774 11.42200473162489
GLOBALSTAR M030         
1 25854U 99037D   26066.58109991 -.00000082  00000+0 -14486-3 0  9991
2 25854  51.9865 274.8422 0004148 137.3539 222.7601 11.55103940180487
GLOBALSTAR M048         
1 25872U 99041A   26066.25261568 -.00000075  00000+0 -12743-3 0  9995
2 25872  51.9369  71.4783 0013211 279.8523  92.8098 11.33862691154829
GLOBALSTAR M026         
1 25873U 99041B   26066.06895225  .00000014  00000+0  28725-2 0  9995
2 25873  52.0021 303.9002 0002115   5.2940 166.0578 11.06842666177595
GLOBALSTAR M043         
1 25874U 99041C   26066.64768800 -.00000051  00000+0  51446-3 0  9997
2 25874  51.9387 188.6816 0013513  44.5380  57.2901 11.25697847152547
GLOBALSTAR M028         
1 25875U 99041D   26066.34170709 -.00000055  00000+0  28823-3 0  9997
2 25875  51.9621 128.3748 0062960 282.8107  76.5724 12.50597085223108
